NORAD_CAT_ID,OBJECT_NAME,OBJECT_TYPE,EPOCH,MEAN_MOTION,ECCENTRICITY,INCLINATION,RA_OF_ASC_NODE,ARG_OF_PERICENTER,MEAN_ANOMALY,BSTAR,MEAN_MOTION_DOT,MEAN_MOTION_DDOT,TLE_LINE0,TLE_LINE1,TLE_LINE2,SEMIMAJOR_AXIS,PERIOD,APOGEE,PERIGEE,DECAYED
53934.0,STARLINK-4775,PAYLOAD,2023-11-29 13:39:41,15.08837118,0.0001629,53.2197,70.2098,100.9859,259.1316,0.00017888,2.56e-05,0.0,0 STARLINK-4775,1 53934U 22119BA  23333.56922876  .00002560  00000-0  17888-3 0  9996,2 53934  53.2197  70.2098 0001629 100.9859 259.1316 15.08837118 66583,6917.889,95.438,540.881,538.627,0.0
53934.0,STARLINK-4775,PAYLOAD,2023-11-30 11:55:05,15.08837406,0.0001744,53.2198,66.0508,107.6485,252.4698,4.3968e-05,4.12e-06,0.0,0 STARLINK-4775,1 53934U 22119BA  23334.49659644  .00000412  00000-0  43968-4 0  9992,2 53934  53.2198  66.0508 0001744 107.6485 252.4698 15.08837406 66286,6917.888,95.438,540.96,538.547,0.0
53934.0,STARLINK-4775,PAYLOAD,2023-12-01 13:21:15,15.08850152,0.0001396,53.2188,61.2926,87.5885,272.5267,8.1636e-05,1.012e-05,0.0,0 STARLINK-4775,1 53934U 22119BA  23335.55643135  .00001012  00000-0  81636-4 0  9999,2 53934  53.2188  61.2926 0001396  87.5885 272.5267 15.08850152 66445,6917.849,95.437,540.68,538.749,0.0
53934.0,STARLINK-4775,PAYLOAD,2023-12-02 11:36:39,15.08826623,0.0001494,53.2182,57.1287,116.337,243.7776,-0.00022733,-3.903e-05,0.0,0 STARLINK-4775,1 53934U 22119BA  23336.48378987 -.00003903  00000-0 -22733-3 0  9997,2 53934  53.2182  57.1287 0001494 116.3370 243.7776 15.08826623 66588,6917.921,95.438,540.82,538.753,0.0
53934.0,STARLINK-4775,PAYLOAD,2023-12-02 13:12:03,15.0881656,0.0001492,53.2183,56.8325,72.4699,287.6456,-0.000344,-5.755e-05,0.0,0 STARLINK-4775,1 53934U 22119BA  23336.55003750 -.00005755  00000-0 -34400-3 0  9999,2 53934  53.2183  56.8325 0001492  72.4699 287.6456 15.08816560 67034,6917.952,95.439,540.849,538.785,0.0
53934.0,STARLINK-4775,PAYLOAD,2023-12-03 11:27:28,15.08809685,0.0001607,53.2178,52.6713,65.4616,294.6544,-0.00040845,-6.777e-05,0.0,0 STARLINK-4775,1 53934U 22119BA  23337.47741689 -.00006777  00000-0 -40845-3 0  9996,2 53934  53.2178  52.6713 0001607  65.4616 294.6544 15.08809685 67173,6917.973,95.439,540.95,538.726,0.0
53934.0,STARLINK-4775,PAYLOAD,2023-12-03 14:38:14,15.08817416,0.000141,53.218,52.0739,91.851,268.2643,-0.00038151,-6.351e-05,0.0,0 STARLINK-4775,1 53934U 22119BA  23337.60989372 -.00006351  00000-0 -38151-3 0  9999,2 53934  53.2180  52.0739 0001410  91.8510 268.2643 15.08817416 66757,6917.949,95.439,540.79,538.839,0.0
53934.0,STARLINK-4775,PAYLOAD,2023-12-04 11:18:15,15.08823944,0.0001921,53.2189,48.2109,66.4384,293.6809,0.00037498,5.682e-05,0.0,0 STARLINK-4775,1 53934U 22119BA  23338.47101260  .00005682  00000-0  37498-3 0  9994,2 53934  53.2189  48.2109 0001921  66.4384 293.6809 15.08823944 66881,6917.929,95.439,541.123,538.466,0.0
53934.0,STARLINK-4775,PAYLOAD,2023-12-04 14:29:01,15.08830568,0.0001773,53.2198,47.6046,78.4653,281.6539,0.00039749,6.042e-05,0.0,0 STARLINK-4775,1 53934U 22119BA  23338.60348813  .00006042  00000-0  39749-3 0  9998,2 53934  53.2198  47.6046 0001773  78.4653 281.6539 15.08830568 67340,6917.909,95.438,541.001,538.548,0.0
53934.0,STARLINK-4775,PAYLOAD,2023-12-05 11:09:00,15.08863802,0.0001434,53.219,43.746,89.2775,270.8382,0.00053739,8.28e-05,0.0,0 STARLINK-4775,1 53934U 22119BA  23339.46458738  .00008280  00000-0  53739-3 0  9992,2 53934  53.2190  43.7460 0001434  89.2775 270.8382 15.08863802 67037,6917.808,95.436,540.665,538.681,0.0
53934.0,STARLINK-4775,PAYLOAD,2023-12-06 09:24:25,15.08853373,0.0001553,53.2193,39.581,107.6747,252.4415,-3.6236e-05,-8.65e-06,0.0,0 STARLINK-4775,1 53934U 22119BA  23340.39195842 -.00000865  00000-0 -36236-4 0  9997,2 53934  53.2193  39.5810 0001553 107.6747 252.4415 15.08853373 67178,6917.84,95.437,540.779,538.63,0.0
53934.0,STARLINK-4775,PAYLOAD,2023-12-06 14:10:34,15.08848997,0.000156,53.2194,38.6923,105.8322,254.2842,-9.9852e-05,-1.877e-05,0.0,0 STARLINK-4775,1 53934U 22119BA  23340.59068068 -.00001877  00000-0 -99852-4 0  9995,2 53934  53.2194  38.6923 0001560 105.8322 254.2842 15.08848997 67643,6917.853,95.437,540.797,538.639,0.0
53934.0,STARLINK-4775,PAYLOAD,2023-12-07 04:29:03,15.08844188,0.0001694,53.2193,36.0137,112.2671,247.8501,-0.00027219,-4.618e-05,0.0,0 STARLINK-4775,1 53934U 22119BA  23341.18684703 -.00004618  00000-0 -27219-3 0  9994,2 53934  53.2193  36.0137 0001694 112.2671 247.8501 15.08844188 67297,6917.868,95.437,540.904,538.561,0.0
53934.0,STARLINK-4775,PAYLOAD,2023-12-07 10:50:35,15.08846263,0.0001466,53.2189,34.8241,98.5529,261.5629,-0.00026135,-4.446e-05,0.0,0 STARLINK-4775,1 53934U 22119BA  23341.45180492 -.00004446  00000-0 -26135-3 0  9995,2 53934  53.2189  34.8241 0001466  98.5529 261.5629 15.08846263 67772,6917.861,95.437,540.74,538.712,0.0
53934.0,STARLINK-4775,PAYLOAD,2023-12-08 10:41:22,15.08835878,0.0001431,53.2185,30.3621,93.0414,267.0742,0.00014067,1.951e-05,0.0,0 STARLINK-4775,1 53934U 22119BA  23342.44539975  .00001951  00000-0  14067-3 0  9996,2 53934  53.2185  30.3621 0001431  93.0414 267.0742 15.08835878 67481,6917.893,95.438,540.748,538.768,0.0
53934.0,STARLINK-4775,PAYLOAD,2023-12-09 10:32:10,15.08834466,0.0001439,53.2188,25.9038,88.1583,271.9574,9.6972e-05,1.255e-05,0.0,0 STARLINK-4775,1 53934U 22119BA  23343.43900681  .00001255  00000-0  96972-4 0  9995,2 53934  53.2188  25.9038 0001439  88.1583 271.9574 15.08834466 67632,6917.897,95.438,540.758,538.767,0.0
53934.0,STARLINK-4775,PAYLOAD,2023-12-09 12:07:33,15.0883538,0.0001376,53.2183,25.6049,86.6226,273.4924,9.8205e-05,1.275e-05,0.0,0 STARLINK-4775,1 53934U 22119BA  23343.50524604  .00001275  00000-0  98205-4 0  9993,2 53934  53.2183  25.6049 0001376  86.6226 273.4924 15.08835380 68085,6917.895,95.438,540.711,538.808,0.0
53934.0,STARLINK-4775,PAYLOAD,2023-12-10 11:58:20,15.08818859,0.0001646,53.219,21.1455,82.651,277.467,0.00031388,4.708e-05,0.0,0 STARLINK-4775,1 53934U 22119BA  23344.49885119  .00004708  00000-0  31388-3 0  9995,2 53934  53.2190  21.1455 0001646  82.6510 277.4670 15.08818859 67798,6917.945,95.439,540.949,538.671,0.0
53934.0,STARLINK-4775,PAYLOAD,2023-12-11 08:38:21,15.0884039,0.0001541,53.2183,17.2811,74.5056,285.6106,3.9614e-05,3.43e-06,0.0,0 STARLINK-4775,1 53934U 22119BA  23345.35996665  .00000343  00000-0  39614-4 0  9992,2 53934  53.2183  17.2811 0001541  74.5056 285.6106 15.08840390 67926,6917.879,95.438,540.81,538.678,0.0
53934.0,STARLINK-4775,PAYLOAD,2023-12-12 08:29:08,15.08840923,0.0001539,53.2188,12.8186,86.0976,274.0192,4.968e-05,5.03e-06,0.0,0 STARLINK-4775,1 53934U 22119BA  23346.35356520  .00000503  00000-0  49680-4 0  9995,2 53934  53.2188  12.8186 0001539  86.0976 274.0192 15.08840923 68518,6917.878,95.437,540.807,538.678,0.0
53934.0,STARLINK-4775,PAYLOAD,2023-12-13 08:19:55,15.08840091,0.0001568,53.2189,8.3611,100.4489,259.6679,2.3184e-05,8.1e-07,0.0,0 STARLINK-4775,1 53934U 22119BA  23347.34716616  .00000081  00000-0  23184-4 0  9993,2 53934  53.2189   8.3611 0001568 100.4489 259.6679 15.08840091 68227,6917.88,95.438,540.83,538.66,0.0
53934.0,STARLINK-4775,PAYLOAD,2023-12-14 08:10:42,15.08838123,0.0001665,53.2194,3.9015,106.3157,253.8019,4.0132e-05,3.51e-06,0.0,0 STARLINK-4775,1 53934U 22119BA  23348.34076796  .00000351  00000-0  40132-4 0  9994,2 53934  53.2194   3.9015 0001665 106.3157 253.8019 15.08838123 68819,6917.886,95.438,540.903,538.599,0.0
53934.0,STARLINK-4775,PAYLOAD,2023-12-15 04:50:43,15.08837088,0.0001707,53.2195,0.0377,109.146,250.9717,3.7736e-05,3.13e-06,0.0,0 STARLINK-4775,1 53934U 22119BA  23349.20189007  .00000313  00000-0  37736-4 0  9994,2 53934  53.2195   0.0377 0001707 109.1460 250.9717 15.08837088 68502,6917.889,95.438,540.935,538.573,0.0
53934.0,STARLINK-4775,PAYLOAD,2023-12-15 06:26:06,15.08837543,0.0001686,53.2193,359.7399,107.7141,252.4035,4.1223e-05,3.68e-06,0.0,0 STARLINK-4775,1 53934U 22119BA  23349.26812990  .00000368  00000-0  41223-4 0  9990,2 53934  53.2193 359.7399 0001686 107.7141 252.4035 15.08837543 68959,6917.888,95.438,540.919,538.587,0.0
53934.0,STARLINK-4775,PAYLOAD,2023-12-15 23:55:21,15.08831666,0.0001509,53.2182,356.4701,106.2896,253.8262,-3.0826e-05,-7.78e-06,0.0,0 STARLINK-4775,1 53934U 22119BA  23349.99677908 -.00000778  00000-0 -30826-4 0  9992,2 53934  53.2182 356.4701 0001509 106.2896 253.8262 15.08831666 68624,6917.906,95.438,540.815,538.727,0.0
53934.0,STARLINK-4775,PAYLOAD,2023-12-16 07:52:17,15.08816382,0.0001444,53.2181,354.9839,91.5834,268.5324,0.00022915,3.359e-05,0.0,0 STARLINK-4775,1 53934U 22119BA  23350.32798158  .00003359  00000-0  22915-3 0  9997,2 53934  53.2181 354.9839 0001444  91.5834 268.5324 15.08816382 69119,6917.953,95.439,540.817,538.819,0.0
53934.0,STARLINK-4775,PAYLOAD,2023-12-17 07:43:04,15.08841179,0.0001369,53.218,350.5244,83.2284,276.8864,7.1204e-05,8.46e-06,0.0,0 STARLINK-4775,1 53934U 22119BA  23351.32157581  .00000846  00000-0  71204-4 0  9991,2 53934  53.2180 350.5244 0001369  83.2284 276.8864 15.08841179 68823,6917.877,95.437,540.689,538.795,0.0
53934.0,STARLINK-4775,PAYLOAD,2023-12-18 07:33:50,15.08846472,0.0001791,53.2198,346.0622,56.4446,303.6717,0.00017416,2.485e-05,0.0,0 STARLINK-4775,1 53934U 22119BA  23352.31517017  .00002485  00000-0  17416-3 0  9990,2 53934  53.2198 346.0622 0001791  56.4446 303.6717 15.08846472 69416,6917.861,95.437,540.965,538.487,0.0
53934.0,STARLINK-4775,PAYLOAD,2023-12-19 04:13:52,15.08838767,0.0001293,53.2186,342.2012,98.8561,261.2578,-2.3894e-05,-6.68e-06,0.0,0 STARLINK-4775,1 53934U 22119BA  23353.17630090 -.00000668  00000-0 -23894-4 0  9993,2 53934  53.2186 342.2012 0001293  98.8561 261.2578 15.08838767 69107,6917.884,95.438,540.644,538.855,0.0
53934.0,STARLINK-4775,PAYLOAD,2023-12-19 05:49:15,15.08840078,0.0001495,53.2183,341.9025,82.3293,277.7869,-9.8506e-06,-4.45e-06,0.0,0 STARLINK-4775,1 53934U 22119BA  23353.24254090 -.00000445  00000-0 -98506-5 0  9999,2 53934  53.2183 341.9025 0001495  82.3293 277.7869 15.08840078 69550,6917.88,95.438,540.779,538.711,0.0
